OTTER                   
1 62623U 25009Q   26068.72300813  .00012198  00000+0  45151-3 0  9990
2 62623  97.4065 151.3812 0003573 310.7710  49.3219 15.27809545 63722
STARLINK-36334          
1 67471U 26008AC  26068.40200992  .00042737  00000+0  15508-2 0  9992
2 67471  43.0015 207.2306 0004619 300.6201  59.4195 15.27631199  9525
